TEVEL2-3                
1 63218U 25052J   26151.66608101  .00023021  00000+0  71595-3 0  9994
2 63218  97.3903  47.6376 0003537 145.3874 214.7599 15.33321295 67561
TEVEL2-2                
1 63219U 25052K   26151.67126382  .00022835  00000+0  71115-3 0  9992
2 63219  97.3902  47.6247 0003508 146.4369 213.7096 15.33277480 67564
TEVEL2-9                
1 63237U 25052AD  26151.95432025  .00018459  00000+0  61088-3 0  9992
2 63237  97.3954  47.3180 0006149 179.5123 180.6125 15.31360356 67549
TEVEL2-7                
1 63238U 25052AE  26151.66540704  .00020472  00000+0  68321-3 0  9990
2 63238  97.3966  46.9520 0006111 181.5260 178.5964 15.31067500 67496
TEVEL2-8                
1 63239U 25052AF  26151.93490837  .00018717  00000+0  62516-3 0  9991
2 63239  97.3966  47.1985 0006118 180.5958 179.5277 15.31060500 67531
INNOSAT 16 (RS92S7)     
1 64878U 25155C   26152.12683412  .00006759  00000+0  27128-3 0  9993
2 64878  97.4556 119.3090 0008802 236.5157 123.5240 15.25271520 78227
GEOSCAN 6 (RS92S6)      
1 64879U 25155D   26152.15814685  .00010365  00000+0  36123-3 0  9998
2 64879  97.4549 120.6529 0006229 221.4793 138.5975 15.29823293 78317
GEOSCAN 1 (RS92S1)      
1 64880U 25155E   26152.16670142  .00011860  00000+0  40567-3 0  9997
2 64880  97.4546 120.7958 0006161 221.0076 139.0702 15.30394265 78327
239ALFEROV (RS61S)      
1 64881U 25155F   26152.15869613  .00015507  00000+0  49632-3 0  9994
2 64881  97.4547 121.2966 0005696 217.2948 142.7899 15.32477988 78358
GEOSCAN 2 (RS92S2)      
1 64890U 25155Q   26152.16322730  .00011462  00000+0  38891-3 0  9990
2 64890  97.4545 120.9385 0005954 203.9010 156.1955 15.30667030 78333
GEOSCAN 5 (RS92S5)      
1 64891U 25155R   26152.15104178  .00015097  00000+0  47864-3 0  9992
2 64891  97.4539 121.4203 0004407 221.3947 138.6961 15.32793538 78367
GEOSCAN 4 (RS92S4)      
1 64892U 25155S   26152.13679671  .00017082  00000+0  53867-3 0  9992
2 64892  97.4542 121.4498 0004430 222.1457 137.9445 15.32939318 78366
GEOSCAN 3 (RS92S3)      
1 64893U 25155T   26152.15774480  .00018435  00000+0  54774-3 0  9990
2 64893  97.4532 121.8556 0004291 219.0139 141.0795 15.34814649 78390
INNOSAT 3 (RS92S0)      
1 64894U 25155U   26152.16742116  .00039420  00000+0  90427-3 0  9995
2 64894  97.4484 123.2949 0003297 197.7161 162.3971 15.42623585 78490
KNACKSAT-2              
1 67683U 98067XZ  26152.00726256  .00049318  00000+0  63621-3 0  9999
2 67683  51.6301  15.7710 0011212 145.6045 214.5675 15.58422414 17757
